NORAD_CAT_ID,OBJECT_NAME,OBJECT_TYPE,EPOCH,MEAN_MOTION,ECCENTRICITY,INCLINATION,RA_OF_ASC_NODE,ARG_OF_PERICENTER,MEAN_ANOMALY,BSTAR,MEAN_MOTION_DOT,MEAN_MOTION_DDOT,TLE_LINE0,TLE_LINE1,TLE_LINE2,SEMIMAJOR_AXIS,PERIOD,APOGEE,PERIGEE,DECAYED
53983.0,STARLINK-5103,PAYLOAD,2024-08-08 09:40:55,15.08857127,0.0001652,53.2161,279.9873,111.0011,249.1157,0.00041,6.246e-05,0.0,0 STARLINK-5103,1 53983U 22125V   24221.40341789  .00006246  00000-0  41000-3 0  9993,2 53983  53.2161 279.9873 0001652 111.0011 249.1157 15.08857127102301,6917.828,95.436,540.836,538.55,0.0
53983.0,STARLINK-5103,PAYLOAD,2024-08-09 12:42:28,15.08852918,0.0001602,53.2151,274.9297,93.198,266.9195,0.00034789,5.255e-05,0.0,0 STARLINK-5103,1 53983U 22125V   24222.52949633  .00005255  00000-0  34789-3 0  9994,2 53983  53.2151 274.9297 0001602  93.1980 266.9195 15.08852918102543,6917.841,95.437,540.814,538.598,0.0
53983.0,STARLINK-5103,PAYLOAD,2024-08-10 03:00:57,15.08838947,0.0001588,53.2146,272.2549,104.3094,255.8074,0.00015017,2.103e-05,0.0,0 STARLINK-5103,1 53983U 22125V   24223.12566190  .00002103  00000-0  15017-3 0  9996,2 53983  53.2146 272.2549 0001588 104.3094 255.8074 15.08838947102631,6917.884,95.438,540.847,538.65,0.0
53983.0,STARLINK-5103,PAYLOAD,2024-08-10 12:33:16,15.08843061,0.0001526,53.2146,270.4693,86.0763,274.0404,0.00026663,3.958e-05,0.0,0 STARLINK-5103,1 53983U 22125V   24223.52310289  .00003958  00000-0  26663-3 0  9994,2 53983  53.2146 270.4693 0001526  86.0763 274.0404 15.08843061102624,6917.871,95.437,540.792,538.68,0.0
53983.0,STARLINK-5103,PAYLOAD,2024-08-11 09:13:16,15.0885117,0.0001352,53.2131,266.6039,93.3044,266.8103,0.00046235,7.08e-05,0.0,0 STARLINK-5103,1 53983U 22125V   24224.38421976  .00007080  00000-0  46235-3 0  9992,2 53983  53.2131 266.6039 0001352  93.3044 266.8103 15.08851170102826,6917.846,95.437,540.647,538.776,0.0
53983.0,STARLINK-5103,PAYLOAD,2024-08-11 20:20:58,15.08859047,0.0001313,53.214,264.5251,79.0008,281.1132,0.0006458,0.0001001,0.0,0 STARLINK-5103,1 53983U 22125V   24224.84789800  .00010010  00000-0  64580-3 0  9996,2 53983  53.2140 264.5251 0001313  79.0008 281.1132 15.08859047102820,6917.822,95.436,540.595,538.779,0.0
53983.0,STARLINK-5103,PAYLOAD,2024-08-12 12:14:49,15.08862791,0.0002002,53.2164,261.5436,114.7905,245.3296,0.00056664,8.747e-05,0.0,0 STARLINK-5103,1 53983U 22125V   24225.51029365  .00008747  00000-0  56664-3 0  9992,2 53983  53.2164 261.5436 0002002 114.7905 245.3296 15.08862791102998,6917.811,95.436,541.061,538.291,0.0
53983.0,STARLINK-5103,PAYLOAD,2024-08-13 02:33:17,15.08859574,0.0002458,53.2146,258.8689,83.6138,276.5134,0.00042348,6.462e-05,0.0,0 STARLINK-5103,1 53983U 22125V   24226.10645512  .00006462  00000-0  42348-3 0  9992,2 53983  53.2146 258.8689 0002458  83.6138 276.5134 15.08859574103087,6917.821,95.436,541.386,537.985,0.0
53983.0,STARLINK-5103,PAYLOAD,2024-08-13 08:54:50,15.08844651,0.00016,53.2149,257.6801,85.4427,274.6748,7.659e-06,-1.66e-06,0.0,0 STARLINK-5103,1 53983U 22125V   24226.37141576 -.00000166  00000-0  76590-5 0  9996,2 53983  53.2149 257.6801 0001600  85.4427 274.6748 15.08844651103127,6917.866,95.437,540.838,538.624,0.0
53983.0,STARLINK-5103,PAYLOAD,2024-08-14 08:45:38,15.08827432,0.0001619,53.2156,253.2228,87.945,272.1727,-9.7717e-05,-1.842e-05,0.0,0 STARLINK-5103,1 53983U 22125V   24227.36502878 -.00001842  00000-0 -97717-4 0  9998,2 53983  53.2156 253.2228 0001619  87.9450 272.1727 15.08827432103277,6917.919,95.438,540.904,538.664,0.0
53983.0,STARLINK-5103,PAYLOAD,2024-08-14 18:17:57,15.08833717,0.0001527,53.2156,251.4368,85.3605,274.7561,-0.00011374,-2.097e-05,0.0,0 STARLINK-5103,1 53983U 22125V   24227.76246652 -.00002097  00000-0 -11374-3 0  9994,2 53983  53.2156 251.4368 0001527  85.3605 274.7561 15.08833717103260,6917.9,95.438,540.821,538.708,0.0
53983.0,STARLINK-5103,PAYLOAD,2024-08-15 08:36:25,15.08836563,0.0001451,53.2146,248.7631,87.9626,272.1532,0.00016659,2.364e-05,0.0,0 STARLINK-5103,1 53983U 22125V   24228.35862983  .00002364  00000-0  16659-3 0  9997,2 53983  53.2146 248.7631 0001451  87.9626 272.1532 15.08836563103350,6917.891,95.438,540.76,538.752,0.0
53983.0,STARLINK-5103,PAYLOAD,2024-08-15 18:08:44,15.08837847,0.000142,53.2144,246.9791,87.2401,272.8753,0.00013938,1.931e-05,0.0,0 STARLINK-5103,1 53983U 22125V   24228.75607031  .00001931  00000-0  13938-3 0  9998,2 53983  53.2144 246.9791 0001420  87.2401 272.8753 15.08837847103410,6917.887,95.438,540.734,538.77,0.0
53983.0,STARLINK-5103,PAYLOAD,2024-08-16 06:51:49,15.08840504,0.0001402,53.2144,244.6002,89.5772,270.538,0.00021605,3.152e-05,0.0,0 STARLINK-5103,1 53983U 22125V   24229.28599112  .00003152  00000-0  21605-3 0  9994,2 53983  53.2144 244.6002 0001402  89.5772 270.5380 15.08840504103567,6917.879,95.438,540.714,538.774,0.0
53983.0,STARLINK-5103,PAYLOAD,2024-08-17 08:18:00,15.08837754,0.000131,53.215,239.84,78.3247,281.7892,2.7392e-05,1.48e-06,0.0,0 STARLINK-5103,1 53983U 22125V   24230.34583880  .00000148  00000-0  27392-4 0  9990,2 53983  53.2150 239.8400 0001310  78.3247 281.7892 15.08837754103726,6917.887,95.438,540.658,538.846,0.0
53983.0,STARLINK-5103,PAYLOAD,2024-08-18 04:58:00,15.0884517,0.000125,53.2153,235.9731,81.9985,278.1149,0.00011169,1.49e-05,0.0,0 STARLINK-5103,1 53983U 22125V   24231.20695059  .00001490  00000-0  11169-3 0  9993,2 53983  53.2153 235.9731 0001250  81.9985 278.1149 15.08845170103855,6917.865,95.437,540.594,538.865,0.0
53983.0,STARLINK-5103,PAYLOAD,2024-08-18 09:44:09,15.08850158,0.0001431,53.2159,235.0815,73.5795,286.5355,0.00017775,2.543e-05,0.0,0 STARLINK-5103,1 53983U 22125V   24231.40566681  .00002543  00000-0  17775-3 0  9992,2 53983  53.2159 235.0815 0001431  73.5795 286.5355 15.08850158103812,6917.849,95.437,540.704,538.724,0.0
53983.0,STARLINK-5103,PAYLOAD,2024-08-19 04:48:48,15.08837735,0.0001381,53.2152,231.5122,91.8226,268.2924,8.4781e-05,1.062e-05,0.0,0 STARLINK-5103,1 53983U 22125V   24232.20055676  .00001062  00000-0  84781-4 0  9995,2 53983  53.2152 231.5122 0001381  91.8226 268.2924 15.08837735104000,6917.887,95.438,540.708,538.797,0.0
53983.0,STARLINK-5103,PAYLOAD,2024-08-19 11:10:20,15.0883869,0.0001314,53.2146,230.3233,86.4173,273.697,8.211e-05,1.019e-05,0.0,0 STARLINK-5103,1 53983U 22125V   24232.46551614  .00001019  00000-0  82110-4 0  9992,2 53983  53.2146 230.3233 0001314  86.4173 273.6970 15.08838690103977,6917.884,95.438,540.658,538.84,0.0
53983.0,STARLINK-5103,PAYLOAD,2024-08-20 06:14:57,15.08846996,0.0001379,53.2148,226.755,86.0851,274.0298,4.0885e-05,3.63e-06,0.0,0 STARLINK-5103,1 53983U 22125V   24233.26039264  .00000363  00000-0  40885-4 0  9997,2 53983  53.2148 226.7550 0001379  86.0851 274.0298 15.08846996104168,6917.859,95.437,540.678,538.77,0.0
53983.0,STARLINK-5103,PAYLOAD,2024-08-21 04:30:21,15.0884347,0.0001422,53.2147,222.5923,85.0345,275.0809,0.00016235,2.297e-05,0.0,0 STARLINK-5103,1 53983U 22125V   24234.18775428  .00002297  00000-0  16235-3 0  9997,2 53983  53.2147 222.5923 0001422  85.0345 275.0809 15.08843470104300,6917.87,95.437,540.719,538.751,0.0
53983.0,STARLINK-5103,PAYLOAD,2024-08-21 06:05:45,15.08843941,0.0001423,53.2148,222.295,84.8538,275.2617,0.00016348,2.315e-05,0.0,0 STARLINK-5103,1 53983U 22125V   24234.25399396  .00002315  00000-0  16348-3 0  9997,2 53983  53.2148 222.2950 0001423  84.8538 275.2617 15.08843941104245,6917.868,95.437,540.718,538.749,0.0
53983.0,STARLINK-5103,PAYLOAD,2024-08-22 04:21:09,15.08840266,0.0001417,53.2154,218.1335,84.4754,275.6399,4.2079e-05,3.82e-06,0.0,0 STARLINK-5103,1 53983U 22125V   24235.18135706  .00000382  00000-0  42079-4 0  9996,2 53983  53.2154 218.1335 0001417  84.4754 275.6399 15.08840266104453,6917.88,95.438,540.725,538.764,0.0
